NORAD_CAT_ID,OBJECT_NAME,OBJECT_TYPE,EPOCH,MEAN_MOTION,ECCENTRICITY,INCLINATION,RA_OF_ASC_NODE,ARG_OF_PERICENTER,MEAN_ANOMALY,BSTAR,MEAN_MOTION_DOT,MEAN_MOTION_DDOT,TLE_LINE0,TLE_LINE1,TLE_LINE2,SEMIMAJOR_AXIS,PERIOD,APOGEE,PERIGEE,DECAYED
51747.0,STARLINK-3446,PAYLOAD,2024-07-19 11:30:27,15.08837753,9.23e-05,53.2177,124.6471,105.9766,254.1328,-0.00017349,-3.048e-05,0.0,0 STARLINK-3446,1 51747U 22016AK  24201.47948381 -.00003048  00000-0 -17349-3 0  9992,2 51747  53.2177 124.6471 0000923 105.9766 254.1328 15.08837753134385,6917.887,95.438,540.391,539.114,0.0
51747.0,STARLINK-3446,PAYLOAD,2024-07-19 22:38:09,15.08828124,0.0001325,53.2184,122.565,84.2124,275.9019,9.8617e-05,1.281e-05,0.0,0 STARLINK-3446,1 51747U 22016AK  24201.94316894  .00001281  00000-0  98617-4 0  9995,2 51747  53.2184 122.5650 0001325  84.2124 275.9019 15.08828124133326,6917.917,95.438,540.698,538.865,0.0
51747.0,STARLINK-3446,PAYLOAD,2024-07-20 11:21:14,15.0883347,0.0001641,53.2171,120.188,126.7911,233.3232,7.902e-05,9.7e-06,0.0,0 STARLINK-3446,1 51747U 22016AK  24202.47308778  .00000970  00000-0  79020-4 0  9997,2 51747  53.2171 120.1880 0001641 126.7911 233.3232 15.08833470133402,6917.9,95.438,540.901,538.63,0.0
51747.0,STARLINK-3446,PAYLOAD,2024-07-20 22:28:56,15.08839143,0.0001086,53.2161,118.1023,95.2407,264.871,-3.7523e-05,-8.85e-06,0.0,0 STARLINK-3446,1 51747U 22016AK  24202.93677041 -.00000885  00000-0 -37523-4 0  9999,2 51747  53.2161 118.1023 0001086  95.2407 264.8710 15.08839143133470,6917.883,95.438,540.499,538.997,0.0
51747.0,STARLINK-3446,PAYLOAD,2024-07-21 01:39:42,15.08840503,0.0001312,53.2169,117.5107,112.6931,247.42,1.55e-05,-4.1e-07,0.0,0 STARLINK-3446,1 51747U 22016AK  24203.06924755 -.00000041  00000-0  15500-4 0  9995,2 51747  53.2169 117.5107 0001312 112.6931 247.4200 15.08840503134623,6917.879,95.438,540.651,538.836,0.0
51747.0,STARLINK-3446,PAYLOAD,2024-07-21 22:19:43,15.08837073,0.000126,53.2169,113.645,110.6472,249.4655,9.9536e-05,1.296e-05,0.0,0 STARLINK-3446,1 51747U 22016AK  24203.93037000  .00001296  00000-0  99536-4 0  9992,2 51747  53.2169 113.6450 0001260 110.6472 249.4655 15.08837073133624,6917.889,95.438,540.626,538.883,0.0
51747.0,STARLINK-3446,PAYLOAD,2024-07-22 03:05:52,15.08846536,0.0001445,53.217,112.7526,118.0922,242.0217,0.00010195,1.335e-05,0.0,0 STARLINK-3446,1 51747U 22016AK  24204.12908370  .00001335  00000-0  10195-3 0  9998,2 51747  53.2170 112.7526 0001445 118.0922 242.0217 15.08846536134782,6917.86,95.437,540.725,538.726,0.0
51747.0,STARLINK-3446,PAYLOAD,2024-07-22 22:10:30,15.08843163,0.0001378,53.2164,109.1835,125.366,234.7461,0.0001285,1.758e-05,0.0,0 STARLINK-3446,1 51747U 22016AK  24204.92396430  .00001758  00000-0  12850-3 0  9993,2 51747  53.2164 109.1835 0001378 125.3660 234.7461 15.08843163133773,6917.871,95.437,540.689,538.782,0.0
51747.0,STARLINK-3446,PAYLOAD,2024-07-23 02:56:38,15.08861109,0.000122,53.2163,108.2912,122.0589,238.0521,0.00026323,3.906e-05,0.0,0 STARLINK-3446,1 51747U 22016AK  24205.12266991  .00003906  00000-0  26323-3 0  9991,2 51747  53.2163 108.2912 0001220 122.0589 238.0521 15.08861109134931,6917.816,95.436,540.525,538.837,0.0
51747.0,STARLINK-3446,PAYLOAD,2024-07-23 10:53:36,15.0883719,0.0001198,53.2163,106.8045,112.1501,247.9619,7.5994e-05,9.22e-06,0.0,0 STARLINK-3446,1 51747U 22016AK  24205.45388918  .00000922  00000-0  75994-4 0  9995,2 51747  53.2163 106.8045 0001198 112.1501 247.9619 15.08837190134985,6917.889,95.438,540.583,538.925,0.0
51747.0,STARLINK-3446,PAYLOAD,2024-07-23 23:36:41,15.08837165,0.0001521,53.2185,104.4084,125.0349,235.0786,-1.4927e-05,-5.26e-06,0.0,0 STARLINK-3446,1 51747U 22016AK  24205.98381183 -.00000526  00000-0 -14927-4 0  9991,2 51747  53.2185 104.4084 0001521 125.0349 235.0786 15.08837165133938,6917.889,95.438,540.806,538.702,0.0
51747.0,STARLINK-3446,PAYLOAD,2024-07-24 23:27:27,15.08853968,0.000144,53.2191,99.9496,125.9945,234.1181,-7.8031e-06,-4.12e-06,0.0,0 STARLINK-3446,1 51747U 22016AK  24206.97740008 -.00000412  00000-0 -78031-5 0  9997,2 51747  53.2191  99.9496 0001440 125.9945 234.1181 15.08853968135212,6917.838,95.437,540.699,538.707,0.0
51747.0,STARLINK-3446,PAYLOAD,2024-07-26 02:29:01,15.08835653,0.0001379,53.218,94.9016,132.7395,227.3713,1.7544e-06,-2.6e-06,0.0,0 STARLINK-3446,1 51747U 22016AK  24208.10349164 -.00000260  00000-0  17544-5 0  9994,2 51747  53.2180  94.9016 0001379 132.7395 227.3713 15.08835653135383,6917.894,95.438,540.713,538.805,0.0
51747.0,STARLINK-3446,PAYLOAD,2024-07-27 21:24:26,15.08838652,0.0001316,53.2183,86.8725,135.0142,225.0957,1.8015e-05,-1e-08,0.0,0 STARLINK-3446,1 51747U 22016AK  24209.89197096 -.00000001  00000-0  18015-4 0  9992,2 51747  53.2183  86.8725 0001316 135.0142 225.0957 15.08838652134522,6917.885,95.438,540.66,538.839,0.0
51747.0,STARLINK-3446,PAYLOAD,2024-07-27 22:59:49,15.08839276,0.0001597,53.2168,86.5766,151.1129,208.9952,7.6971e-05,9.37e-06,0.0,0 STARLINK-3446,1 51747U 22016AK  24209.95821037  .00000937  00000-0  76971-4 0  9990,2 51747  53.2168  86.5766 0001597 151.1129 208.9952 15.08839276135666,6917.883,95.438,540.852,538.643,0.0
51747.0,STARLINK-3446,PAYLOAD,2024-07-28 08:32:09,15.08828792,9.99e-05,53.2142,84.8,113.5261,246.5837,7.7143e-05,9.4e-06,0.0,0 STARLINK-3446,1 51747U 22016AK  24210.35566085  .00000940  00000-0  77143-4 0  9991,2 51747  53.2142  84.8000 0000999 113.5261 246.5837 15.08828792135722,6917.915,95.438,540.471,539.089,0.0
51747.0,STARLINK-3446,PAYLOAD,2024-07-28 22:50:37,15.08831953,0.0001482,53.2184,82.1234,98.9052,261.2108,0.00013407,1.846e-05,0.0,0 STARLINK-3446,1 51747U 22016AK  24210.95181818  .00001846  00000-0  13407-3 0  9992,2 51747  53.2184  82.1234 0001482  98.9052 261.2108 15.08831953134682,6917.905,95.438,540.795,538.745,0.0
51747.0,STARLINK-3446,PAYLOAD,2024-07-29 02:01:23,15.08833758,0.0001486,53.2184,81.5263,92.4812,267.635,0.00020822,3.027e-05,0.0,0 STARLINK-3446,1 51747U 22016AK  24211.08429468  .00003027  00000-0  20822-3 0  9995,2 51747  53.2184  81.5263 0001486  92.4812 267.6350 15.08833758135836,6917.899,95.438,540.792,538.736,0.0
51747.0,STARLINK-3446,PAYLOAD,2024-07-29 08:22:55,15.08836798,0.0001293,53.218,80.3291,103.7334,256.3802,9.2803e-05,1.189e-05,0.0,0 STARLINK-3446,1 51747U 22016AK  24211.34925804  .00001189  00000-0  92803-4 0  9995,2 51747  53.2180  80.3291 0001293 103.7334 256.3802 15.08836798134744,6917.89,95.438,540.65,538.861,0.0
51747.0,STARLINK-3446,PAYLOAD,2024-07-29 22:41:23,15.08847214,0.0001334,53.2172,77.6589,95.4356,264.6789,0.00022694,3.326e-05,0.0,0 STARLINK-3446,1 51747U 22016AK  24211.94541052  .00003326  00000-0  22694-3 0  9995,2 51747  53.2172  77.6589 0001334  95.4356 264.6789 15.08847214134832,6917.858,95.437,540.646,538.8,0.0
51747.0,STARLINK-3446,PAYLOAD,2024-07-30 08:13:42,15.08843858,0.0001423,53.217,75.8738,79.7893,280.326,0.00013753,1.902e-05,0.0,0 STARLINK-3446,1 51747U 22016AK  24212.34285449  .00001902  00000-0  13753-3 0  9999,2 51747  53.2170  75.8738 0001423  79.7893 280.3260 15.08843858136028,6917.869,95.437,540.718,538.749,0.0
51747.0,STARLINK-3446,PAYLOAD,2024-07-30 22:32:10,15.08844824,0.0001481,53.2185,73.1957,82.9157,277.2003,8.3931e-05,1.048e-05,0.0,0 STARLINK-3446,1 51747U 22016AK  24212.93901542  .00001048  00000-0  83931-4 0  9990,2 51747  53.2185  73.1957 0001481  82.9157 277.2003 15.08844824134988,6917.866,95.437,540.755,538.706,0.0
51747.0,STARLINK-3446,PAYLOAD,2024-07-31 14:26:02,15.08837593,0.0001295,53.2168,70.2266,86.2893,273.8248,2.1882e-05,6e-07,0.0,0 STARLINK-3446,1 51747U 22016AK  24213.60142101  .00000060  00000-0  21882-4 0  9993,2 51747  53.2168  70.2266 0001295  86.2893 273.8248 15.08837593135087,6917.888,95.438,540.649,538.857,0.0
51747.0,STARLINK-3446,PAYLOAD,2024-07-31 20:47:35,15.08845647,0.0001263,53.2166,69.0352,105.4775,254.6357,-6.373e-05,-1.302e-05,0.0,0 STARLINK-3446,1 51747U 22016AK  24213.86637793 -.00001302  00000-0 -63730-4 0  9997,2 51747  53.2166  69.0352 0001263 105.4775 254.6357 15.08845647135127,6917.863,95.437,540.602,538.854,0.0
51747.0,STARLINK-3446,PAYLOAD,2024-08-01 07:55:18,15.08826343,0.0001547,53.219,66.9519,95.0274,265.0895,-9.5268e-05,-1.803e-05,0.0,0 STARLINK-3446,1 51747U 22016AK  24214.33007345 -.00001803  00000-0 -95268-4 0  9991,2 51747  53.2190  66.9519 0001547  95.0274 265.0895 15.08826343136326,6917.922,95.438,540.857,538.717,0.0
51747.0,STARLINK-3446,PAYLOAD,2024-08-01 19:03:00,15.08828464,0.0001491,53.2174,64.8738,78.802,281.314,-3.4753e-05,-8.41e-06,0.0,0 STARLINK-3446,1 51747U 22016AK  24214.79375445 -.00000841  00000-0 -34753-4 0  9993,2 51747  53.2174  64.8738 0001491  78.8020 281.3140 15.08828464135266,6917.916,95.438,540.812,538.749,0.0
51747.0,STARLINK-3446,PAYLOAD,2024-08-02 20:29:08,15.08853408,0.0001344,53.2177,60.1143,93.5983,266.5163,0.00023469,3.45e-05,0.0,0 STARLINK-3446,1 51747U 22016AK  24215.85357573  .00003450  00000-0  23469-3 0  9991,2 51747  53.2177  60.1143 0001344  93.5983 266.5163 15.08853408136556,6917.839,95.437,540.634,538.775,0.0
51747.0,STARLINK-3446,PAYLOAD,2024-08-03 13:58:24,15.0884335,0.000104,53.218,56.8428,96.5796,263.5315,0.00019203,2.77e-05,0.0,0 STARLINK-3446,1 51747U 22016AK  24216.58222632  .00002770  00000-0  19203-3 0  9994,2 51747  53.2180  56.8428 0001040  96.5796 263.5315 15.08843350135534,6917.87,95.437,540.455,539.016,0.0
51747.0,STARLINK-3446,PAYLOAD,2024-08-03 20:19:56,15.0886122,0.0001351,53.217,55.6556,96.6139,263.5007,0.00035513,5.372e-05,0.0,0 STARLINK-3446,1 51747U 22016AK  24216.84717767  .00005372  00000-0  35513-3 0  9994,2 51747  53.2170  55.6556 0001351  96.6139 263.5007 15.08861220136703,6917.816,95.436,540.615,538.746,0.0
51747.0,STARLINK-3446,PAYLOAD,2024-08-04 13:49:10,15.0884717,0.0001959,53.217,52.3815,76.8923,283.2288,-2.9902e-05,-7.64e-06,0.0,0 STARLINK-3446,1 51747U 22016AK  24217.57581841 -.00000764  00000-0 -29902-4 0  9995,2 51747  53.2170  52.3815 0001959  76.8923 283.2288 15.08847170136810,6917.858,95.437,541.079,538.368,0.0
